     2.100          NAVIGATION                              RINEX VERSION / TYPE
fic2rin                                 07/20/2010 00:06:27 PGM / RUN BY / DATE
                                                            END OF HEADER
28 10  7 19  4  0  0.0 -.101332552731D-04  .125055521494D-11  .000000000000D+00
     .820000000000D+02 -.164062500000D+02  .444732810621D-08 -.470171030453D-01
    -.890344381332D-06  .160336361732D-01  .766105949879D-05  .515367363739D+04
     .100800000000D+06 -.191852450371D-06  .259192328561D+01  .249594449997D-06
     .971075206300D+00  .242843750000D+03 -.195132591818D+01 -.821677083292D-08
     .462162108050D-09  .100000000000D+01  .159300000000D+04  .000000000000D+00
     .340000000000D+01  .000000000000D+00 -.107102096081D-07  .820000000000D+02
     .936060000000D+05  .400000000000D+01
30 10  7 19  4  0  0.0  .261787325144D-03  .329691829393D-11  .000000000000D+00
     .740000000000D+02 -.226562500000D+02  .470019578202D-08  .370518756656D+00
    -.136531889439D-05  .124590557534D-01  .795908272266D-05  .515370920944D+04
     .100800000000D+06 -.124797224998D-06  .251239475345D+01 -.353902578354D-07
     .956921390497D+00  .225093750000D+03  .149393845400D+01 -.830820321287D-08
     .427874965567D-09  .100000000000D+01  .159300000000D+04  .000000000000D+00
     .340000000000D+01  .000000000000D+00 -.791624188423D-08  .740000000000D+02
     .936060000000D+05  .400000000000D+01
31 10  7 19  4  0  0.0 -.235298648477D-04  .261479726760D-11  .000000000000D+00
     .106000000000D+03 -.680625000000D+02  .384230290448D-08  .274819798945D+01
    -.338815152645D-05  .733182579279D-02  .772997736931D-05  .515372821999D+04
     .100800000000D+06  .204890966415D-07  .151240724469D+01  .186264514923D-07
     .977171738919D+00  .239906250000D+03 -.105059525792D+01 -.763460372618D-08
     .503592405216D-10  .100000000000D+01  .159300000000D+04  .000000000000D+00
     .340000000000D+01  .000000000000D+00 -.130385160446D-07  .106000000000D+03
     .936060000000D+05  .400000000000D+01
32 10  7 19  4  0  0.0 -.411784276366D-04 -.875388650456D-11  .000000000000D+00
     .620000000000D+02  .866250000000D+02  .447375777854D-08 -.275005762166D+01
     .450015068054D-05  .126413991675D-01  .559166073799D-05  .515368994331D+04
     .100800000000D+06 -.335276126862D-07 -.499602908752D+00  .189989805222D-06
     .958617231467D+00  .268125000000D+03 -.961607440410D+00 -.792497296408D-08
    -.628597612185D-10  .100000000000D+01  .159300000000D+04  .000000000000D+00
     .240000000000D+01  .000000000000D+00 -.325962901115D-08  .620000000000D+02
     .936060000000D+05  .400000000000D+01
13 10  7 19  3 59 44.0  .301464926451D-03 -.682121026330D-12  .000000000000D+00
     .200000000000D+02 -.170937500000D+02  .380837291973D-08 -.107452713917D+01
    -.918284058571D-06  .448231713381D-02  .459514558315D-05  .515373337555D+04
     .100784000000D+06 -.633299350739D-07  .532088553933D+00  .223517417908D-07
     .992676448387D+00  .307593750000D+03  .177261817166D+01 -.796497463031D-08
    -.191793703263D-09  .100000000000D+01  .159300000000D+04  .000000000000D+00
     .240000000000D+01  .000000000000D+00 -.107102096081D-07  .200000000000D+02
     .950760000000D+05  .400000000000D+01
 5 10  7 19  3 59 44.0 -.154031440616D-04 -.329691829393D-11  .000000000000D+00
     .100000000000D+01  .916562500000D+02  .463697886307D-08 -.228940445911D+00
     .460818409920D-05  .183531607036D-02  .574067234993D-05  .515374936295D+04
     .100784000000D+06  .484287738800D-07 -.588595827459D+00 -.745058059692D-08
     .957750768495D+00  .267406250000D+03  .212498828115D+00 -.825462955274D-08
    -.101432796512D-09  .100000000000D+01  .159300000000D+04  .000000000000D+00
     .240000000000D+01  .000000000000D+00 -.884756445885D-08  .100000000000D+01
     .958860000000D+05  .400000000000D+01
28 10  7 19  3 59 44.0 -.101388432086D-04  .113686837722D-11  .000000000000D+00
     .200000000000D+01 -.164062500000D+02  .444732810621D-08 -.493509811065D-01
    -.890344381332D-06  .160336379195D-01  .766105949879D-05  .515367363358D+04
     .100784000000D+06 -.191852450371D-06  .259192342020D+01  .249594449997D-06
     .971075187282D+00  .242843750000D+03 -.195132575433D+01 -.821677083292D-08
     .461804950316D-09  .100000000000D+01  .159300000000D+04  .000000000000D+00
     .240000000000D+01  .000000000000D+00 -.107102096081D-07  .200000000000D+01
     .979860000000D+05  .400000000000D+01
31 10  7 19  3 59 44.0 -.235326588154D-04  .261479726760D-11  .000000000000D+00
     .000000000000D+00 -.680625000000D+02  .384266006222D-08  .274586499646D+01
    -.338815152645D-05  .733182823751D-02  .772997736931D-05  .515372823524D+04
     .100784000000D+06  .204890966415D-07  .151240737782D+01  .186264514923D-07
     .977171719902D+00  .239906250000D+03 -.105059593964D+01 -.763460372618D-08
     .503592405216D-10  .100000000000D+01  .159300000000D+04  .000000000000D+00
     .240000000000D+01  .000000000000D+00 -.130385160446D-07  .000000000000D+00
     .987060000000D+05  .400000000000D+01
 5 10  7 19  5 59 44.0 -.154268927872D-04 -.329691829393D-11  .000000000000D+00
     .200000000000D+01  .831250000000D+02  .476019828137D-08  .821456985986D+00
     .449083745480D-05  .183417706285D-02  .569969415665D-05  .515374704552D+04
     .107984000000D+06  .484287738800D-07 -.588655192674D+00  .558793544769D-08
     .957750058980D+00  .264343750000D+03  .212237871325D+00 -.824498629392D-08
    -.105718689322D-09  .100000000000D+01  .159300000000D+04  .000000000000D+00
     .240000000000D+01  .000000000000D+00 -.884756445885D-08  .200000000000D+01
     .100806000000D+06  .400000000000D+01
13 10  7 19  5 59 44.0  .301460269839D-03 -.682121026330D-12  .000000000000D+00
     .350000000000D+02 -.170000000000D+02  .383194533019D-08 -.244222908864D-01
    -.944361090660D-06  .448137253989D-02  .419281423092D-05  .515373168945D+04
     .107984000000D+06 -.782310962677D-07  .532031386020D+00 -.447034835815D-07
     .992675003024D+00  .315875000000D+03  .177265264093D+01 -.796247452617D-08
    -.232509684962D-09  .100000000000D+01  .159300000000D+04  .000000000000D+00
     .240000000000D+01  .000000000000D+00 -.107102096081D-07  .350000000000D+02
     .100806000000D+06  .400000000000D+01
28 10  7 19  5 59 44.0 -.101304613054D-04  .113686837722D-11  .000000000000D+00
     .300000000000D+01 -.217500000000D+02  .434875257157D-08  .100077829352D+01
    -.115856528282D-05  .160346607445D-01  .788271427155D-05  .515367611504D+04
     .107984000000D+06 -.283122062683D-06  .259186506293D+01  .149011611938D-07
     .971077760555D+00  .234968750000D+03 -.195127582933D+01 -.818891252965D-08
     .309298597814D-09  .100000000000D+01  .159300000000D+04  .000000000000D+00
     .240000000000D+01  .000000000000D+00 -.107102096081D-07  .300000000000D+01
     .100806000000D+06  .400000000000D+01
31 10  7 19  5 59 44.0 -.235135667026D-04  .261479726760D-11  .000000000000D+00
     .300000000000D+01 -.809062500000D+02  .384944605917D-08 -.248718684484D+01
    -.410899519920D-05  .732977490406D-02  .819191336632D-05  .515373201942D+04
     .107984000000D+06  .115483999252D-06  .151235267638D+01  .111758708954D-06
     .977171572147D+00  .231312500000D+03 -.105058856800D+01 -.772032158238D-08
    -.232152527227D-10  .100000000000D+01  .159300000000D+04  .000000000000D+00
     .240000000000D+01  .000000000000D+00 -.130385160446D-07  .300000000000D+01
     .100806000000D+06  .400000000000D+01
 1 10  7 19  6  0  0.0 -.142661854625D-03 -.409272615798D-11  .000000000000D+00
     .750000000000D+02 -.247187500000D+02  .438803992233D-08  .616710889307D+00
    -.125728547573D-05  .443760887720D-02  .794604420662D-05  .515359994316D+04
     .108000000000D+06 -.409781932831D-07  .255205776146D+01  .186264514923D-07
     .965531718157D+00  .229343750000D+03  .928111365027D+00 -.797997525514D-08
     .414302971667D-09  .100000000000D+01  .159300000000D+04  .000000000000D+00
     .240000000000D+01  .630000000000D+02 -.190921127796D-07  .750000000000D+02
     .100806000000D+06  .400000000000D+01
 2 10  7 19  6  0  0.0  .273999292403D-03  .306954461848D-11  .000000000000D+00
     .310000000000D+02  .352187500000D+02  .517271546436D-08 -.831333855455D+00
     .182911753654D-05  .961232930422D-02  .929832458496D-05  .515360800934D+04
     .108000000000D+06  .122934579849D-06 -.164891356286D+01 -.102445483208D-06
     .939356555902D+00  .189656250000D+03  .310884244553D+01 -.823605735056D-08
    -.925038531568D-10  .100000000000D+01  .159300000000D+04  .000000000000D+00
     .240000000000D+01  .000000000000D+00 -.172294676304D-07  .310000000000D+02
     .100806000000D+06  .400000000000D+01
 3 10  7 19  6  0  0.0  .583475921303D-03  .500222085975D-11  .000000000000D+00
     .400000000000D+02 -.191875000000D+02  .564916388178D-08 -.927620580881D+00
    -.674277544022D-06  .133621051209D-01  .638514757156D-05  .515371131516D+04
     .108000000000D+06  .949949026108D-07 -.280215571276D+01  .262632966042D-06
     .927645478283D+00  .238093750000D+03  .101128313374D+01 -.863785980153D-08
     .992898501065D-10  .100000000000D+01  .159300000000D+04  .000000000000D+00
     .240000000000D+01  .000000000000D+00 -.465661287308D-08  .400000000000D+02
     .100806000000D+06  .400000000000D+01
 4 10  7 19  6  0  0.0  .127976294607D-03  .807176547823D-11  .000000000000D+00
     .340000000000D+02  .285312500000D+02  .508771192362D-08  .224740155167D+01
     .146031379700D-05  .912236038130D-02  .969693064690D-05  .515372273636D+04
     .108000000000D+06 -.199303030968D-06 -.163111323357D+01 -.987201929092D-07
     .938487262184D+00  .183375000000D+03  .616654022755D+00 -.809390857235D-08
    -.152863510236D-09  .100000000000D+01  .159300000000D+04  .000000000000D+00
     .240000000000D+01  .000000000000D+00 -.605359673500D-08  .340000000000D+02
     .100806000000D+06  .400000000000D+01
